[{"OBJECT_NAME":"CS1","OBJECT_ID":"2021-088B","EPOCH":"2026-03-09T18:02:30.253920","MEAN_MOTION":15.31848439,"ECCENTRICITY":0.00141292,"INCLINATION":97.3882,"RA_OF_ASC_NODE":132.1684,"ARG_OF_PERICENTER":78.0335,"MEAN_ANOMALY":282.249,"EPHEMERIS_TYPE":0,"CLASSIFICATION_TYPE":"U","NORAD_CAT_ID":49261,"ELEMENT_SET_NO":999,"REV_AT_EPOCH":24518,"BSTAR":0.00051175576,"MEAN_MOTION_DOT":0.00015722,"MEAN_MOTION_DDOT":0},{"OBJECT_NAME":"STARLINK-35352","OBJECT_ID":"2025-243A","EPOCH":"2026-03-09T18:10:59.854944","MEAN_MOTION":15.30208384,"ECCENTRICITY":7.361e-5,"INCLINATION":53.159,"RA_OF_ASC_NODE":244.972,"ARG_OF_PERICENTER":66.9614,"MEAN_ANOMALY":293.1464,"EPHEMERIS_TYPE":0,"CLASSIFICATION_TYPE":"U","NORAD_CAT_ID":66177,"ELEMENT_SET_NO":999,"REV_AT_EPOCH":2066,"BSTAR":0.00088636441,"MEAN_MOTION_DOT":0.00025991,"MEAN_MOTION_DDOT":0}]
