CS1                     
1 49261U 21088B   26068.75173904  .00015722  00000+0  51176-3 0  9998
2 49261  97.3882 132.1684 0014129  78.0335 282.2490 15.31848439245182
STARLINK-35352          
1 66177U 25243A   26068.75763720  .00025991  00000+0  88636-3 0  9991
2 66177  53.1590 244.9720 0000736  66.9614 293.1464 15.30208384 20665
